[{"OBJECT_NAME":"STARLINK-3106","OBJECT_ID":"2021-082AL","EPOCH":"2026-03-09T23:20:17.340288","MEAN_MOTION":14.98331002,"ECCENTRICITY":0.00026012,"INCLINATION":69.9978,"RA_OF_ASC_NODE":273.7374,"ARG_OF_PERICENTER":271.0782,"MEAN_ANOMALY":89.0079,"EPHEMERIS_TYPE":0,"CLASSIFICATION_TYPE":"U","NORAD_CAT_ID":49164,"ELEMENT_SET_NO":999,"REV_AT_EPOCH":24767,"BSTAR":-7.967498e-6,"MEAN_MOTION_DOT":-1.88e-6,"MEAN_MOTION_DDOT":0},{"OBJECT_NAME":"COSMOS 397","OBJECT_ID":"1971-015A","EPOCH":"2026-03-09T21:06:55.710144","MEAN_MOTION":12.74935942,"ECCENTRICITY":0.10338804,"INCLINATION":65.7267,"RA_OF_ASC_NODE":325.6378,"ARG_OF_PERICENTER":275.7656,"MEAN_ANOMALY":72.6585,"EPHEMERIS_TYPE":0,"CLASSIFICATION_TYPE":"U","NORAD_CAT_ID":4964,"ELEMENT_SET_NO":999,"REV_AT_EPOCH":65559,"BSTAR":4.9717727e-5,"MEAN_MOTION_DOT":2.9e-7,"MEAN_MOTION_DDOT":0}]
